{"fetched_at":"2026-07-11T09:23:55.576Z","source":"https://celestrak.org/NORAD/elements/gp.php?GROUP=kuiper&FORMAT=JSON","constellation":"kuiper","records":[{"OBJECT_NAME":"KUIPER-00096","OBJECT_ID":"2025-171D","EPOCH":"2026-07-10T09:05:57.630336","CLASSIFICATION_TYPE":"U","MEAN_MOTION":14.79939482,"ECCENTRICITY":0.00004412,"INCLINATION":51.9002,"RA_OF_ASC_NODE":335.5399,"ARG_OF_PERICENTER":112.4261,"MEAN_ANOMALY":247.6748,"EPHEMERIS_TYPE":0,"NORAD_CAT_ID":65135,"ELEMENT_SET_NO":999,"REV_AT_EPOCH":5106,"BSTAR":0.00031780975,"MEAN_MOTION_DOT":0.00002203,"MEAN_MOTION_DDOT":0},{"OBJECT_NAME":"KUIPER-00097","OBJECT_ID":"2025-171E","EPOCH":"2026-07-10T10:39:21.412512","CLASSIFICATION_TYPE":"U","MEAN_MOTION":14.79934931,"ECCENTRICITY":0.00006672,"INCLINATION":51.9022,"RA_OF_ASC_NODE":337.9084,"ARG_OF_PERICENTER":110.9087,"MEAN_ANOMALY":249.1947,"EPHEMERIS_TYPE":0,"NORAD_CAT_ID":65136,"ELEMENT_SET_NO":999,"REV_AT_EPOCH":5102,"BSTAR":0.00031767529,"MEAN_MOTION_DOT":0.00002202,"MEAN_MOTION_DDOT":0},{"OBJECT_NAME":"KUIPER-00098","OBJECT_ID":"2025-171F","EPOCH":"2026-07-10T10:35:26.874528","CLASSIFICATION_TYPE":"U","MEAN_MOTION":14.79937074,"ECCENTRICITY":0.00005158,"INCLINATION":51.9007,"RA_OF_ASC_NODE":340.286,"ARG_OF_PERICENTER":100.3233,"MEAN_ANOMALY":259.7788,"EPHEMERIS_TYPE":0,"NORAD_CAT_ID":65137,"ELEMENT_SET_NO":999,"REV_AT_EPOCH":5034,"BSTAR":0.00032013785,"MEAN_MOTION_DOT":0.0000222,"MEAN_MOTION_DDOT":0},{"OBJECT_NAME":"KUIPER-00099","OBJECT_ID":"2025-171G","EPOCH":"2026-07-10T10:02:21.459552","CLASSIFICATION_TYPE":"U","MEAN_MOTION":14.79938187,"ECCENTRICITY":0.00005943,"INCLINATION":51.9024,"RA_OF_ASC_NODE":330.3918,"ARG_OF_PERICENTER":109.1185,"MEAN_ANOMALY":250.9842,"EPHEMERIS_TYPE":0,"NORAD_CAT_ID":65138,"ELEMENT_SET_NO":999,"REV_AT_EPOCH":5113,"BSTAR":0.00032984817,"MEAN_MOTION_DOT":0.00002295,"MEAN_MOTION_DDOT":0},{"OBJECT_NAME":"KUIPER-00100","OBJECT_ID":"2025-171H","EPOCH":"2026-07-10T19:01:03.867168","CLASSIFICATION_TYPE":"U","MEAN_MOTION":14.79926289,"ECCENTRICITY":0.0000542,"INCLINATION":51.9023,"RA_OF_ASC_NODE":326.2086,"ARG_OF_PERICENTER":96.5862,"MEAN_ANOMALY":263.5162,"EPHEMERIS_TYPE":0,"NORAD_CAT_ID":65139,"ELEMENT_SET_NO":999,"REV_AT_EPOCH":5122,"BSTAR":0.0000097355,"MEAN_MOTION_DOT":-0.00000147,"MEAN_MOTION_DDOT":0},{"OBJECT_NAME":"KUIPER-00102","OBJECT_ID":"2025-171J","EPOCH":"2026-07-10T17:19:56.866944","CLASSIFICATION_TYPE":"U","MEAN_MOTION":14.79934818,"ECCENTRICITY":0.0000552,"INCLINATION":51.8978,"RA_OF_ASC_NODE":329.0064,"ARG_OF_PERICENTER":76.4562,"MEAN_ANOMALY":283.6461,"EPHEMERIS_TYPE":0,"NORAD_CAT_ID":65140,"ELEMENT_SET_NO":999,"REV_AT_EPOCH":5117,"BSTAR":0.00025962,"MEAN_MOTION_DOT":0.00001759,"MEAN_MOTION_DDOT":0},{"OBJECT_NAME":"KUIPER-00103","OBJECT_ID":"2025-171K","EPOCH":"2026-07-10T11:12:24.663168","CLASSIFICATION_TYPE":"U","MEAN_MOTION":14.79937876,"ECCENTRICITY":0.00005158,"INCLINATION":51.8991,"RA_OF_ASC_NODE":347.6343,"ARG_OF_PERICENTER":110.8568,"MEAN_ANOMALY":249.245,"EPHEMERIS_TYPE":0,"NORAD_CAT_ID":65141,"ELEMENT_SET_NO":999,"REV_AT_EPOCH":5089,"BSTAR":0.00032831064,"MEAN_MOTION_DOT":0.00002283,"MEAN_MOTION_DDOT":0},{"OBJECT_NAME":"KUIPER-00104","OBJECT_ID":"2025-171L","EPOCH":"2026-07-09T16:04:55.355232","CLASSIFICATION_TYPE":"U","MEAN_MOTION":14.79927148,"ECCENTRICITY":0.00005165,"INCLINATION":51.9019,"RA_OF_ASC_NODE":338.6564,"ARG_OF_PERICENTER":102.5768,"MEAN_ANOMALY":257.5252,"EPHEMERIS_TYPE":0,"NORAD_CAT_ID":65142,"ELEMENT_SET_NO":999,"REV_AT_EPOCH":5095,"BSTAR":0.00036944402,"MEAN_MOTION_DOT":0.00002596,"MEAN_MOTION_DDOT":0},{"OBJECT_NAME":"KUIPER-00105","OBJECT_ID":"2025-171M","EPOCH":"2026-07-09T16:41:54.902112","CLASSIFICATION_TYPE":"U","MEAN_MOTION":14.79927065,"ECCENTRICITY":0.00006644,"INCLINATION":51.9008,"RA_OF_ASC_NODE":346.145,"ARG_OF_PERICENTER":109.5008,"MEAN_ANOMALY":250.6026,"EPHEMERIS_TYPE":0,"NORAD_CAT_ID":65143,"ELEMENT_SET_NO":999,"REV_AT_EPOCH":5085,"BSTAR":0.00034515734,"MEAN_MOTION_DOT":0.00002411,"MEAN_MOTION_DDOT":0},{"OBJECT_NAME":"KUIPER-00106","OBJECT_ID":"2025-171N","EPOCH":"2026-07-09T16:14:08.426688","CLASSIFICATION_TYPE":"U","MEAN_MOTION":14.79932977,"ECCENTRICITY":0.00005989,"INCLINATION":51.9013,"RA_OF_ASC_NODE":324.9921,"ARG_OF_PERICENTER":113.4763,"MEAN_ANOMALY":246.6262,"EPHEMERIS_TYPE":0,"NORAD_CAT_ID":65144,"ELEMENT_SET_NO":999,"REV_AT_EPOCH":5115,"BSTAR":0.00035217423,"MEAN_MOTION_DOT":0.00002465,"MEAN_MOTION_DDOT":0},{"OBJECT_NAME":"KUIPER-00107","OBJECT_ID":"2025-171P","EPOCH":"2026-07-10T17:27:44.011872","CLASSIFICATION_TYPE":"U","MEAN_MOTION":14.79930955,"ECCENTRICITY":0.0000592,"INCLINATION":51.9012,"RA_OF_ASC_NODE":324.0237,"ARG_OF_PERICENTER":105.6781,"MEAN_ANOMALY":254.4247,"EPHEMERIS_TYPE":0,"NORAD_CAT_ID":65145,"ELEMENT_SET_NO":999,"REV_AT_EPOCH":5125,"BSTAR":0.00030164,"MEAN_MOTION_DOT":0.00002079,"MEAN_MOTION_DDOT":0},{"OBJECT_NAME":"KUIPER-00108","OBJECT_ID":"2025-171Q","EPOCH":"2026-07-09T11:09:19.517472","CLASSIFICATION_TYPE":"U","MEAN_MOTION":14.79931416,"ECCENTRICITY":0.00005793,"INCLINATION":51.9025,"RA_OF_ASC_NODE":342.1433,"ARG_OF_PERICENTER":101.1896,"MEAN_ANOMALY":258.9131,"EPHEMERIS_TYPE":0,"NORAD_CAT_ID":65146,"ELEMENT_SET_NO":999,"REV_AT_EPOCH":5089,"BSTAR":0.00033456557,"MEAN_MOTION_DOT":0.0000233,"MEAN_MOTION_DDOT":0},{"OBJECT_NAME":"KUIPER-00109","OBJECT_ID":"2025-171R","EPOCH":"2026-07-10T09:09:51.827904","CLASSIFICATION_TYPE":"U","MEAN_MOTION":14.79925995,"ECCENTRICITY":0.00004115,"INCLINATION":51.9009,"RA_OF_ASC_NODE":333.03,"ARG_OF_PERICENTER":91.4313,"MEAN_ANOMALY":268.6696,"EPHEMERIS_TYPE":0,"NORAD_CAT_ID":65147,"ELEMENT_SET_NO":999,"REV_AT_EPOCH":5109,"BSTAR":0.00031292416,"MEAN_MOTION_DOT":0.00002165,"MEAN_MOTION_DDOT":0},{"OBJECT_NAME":"KUIPER-00110","OBJECT_ID":"2025-171S","EPOCH":"2026-07-09T17:26:38.762592","CLASSIFICATION_TYPE":"U","MEAN_MOTION":14.79933339,"ECCENTRICITY":0.00006489,"INCLINATION":51.9013,"RA_OF_ASC_NODE":348.4873,"ARG_OF_PERICENTER":110.4555,"MEAN_ANOMALY":249.6477,"EPHEMERIS_TYPE":0,"NORAD_CAT_ID":65148,"ELEMENT_SET_NO":999,"REV_AT_EPOCH":5081,"BSTAR":0.00033918174,"MEAN_MOTION_DOT":0.00002365,"MEAN_MOTION_DDOT":0},{"OBJECT_NAME":"KUIPER-00111","OBJECT_ID":"2025-171T","EPOCH":"2026-07-09T18:07:28.778880","CLASSIFICATION_TYPE":"U","MEAN_MOTION":14.79927065,"ECCENTRICITY":0.00006824,"INCLINATION":51.8982,"RA_OF_ASC_NODE":353.2404,"ARG_OF_PERICENTER":107.9545,"MEAN_ANOMALY":252.1492,"EPHEMERIS_TYPE":0,"NORAD_CAT_ID":65149,"ELEMENT_SET_NO":999,"REV_AT_EPOCH":5075,"BSTAR":0.00034044944,"MEAN_MOTION_DOT":0.00002375,"MEAN_MOTION_DDOT":0},{"OBJECT_NAME":"KUIPER-00112","OBJECT_ID":"2025-171U","EPOCH":"2026-07-10T09:58:29.754624","CLASSIFICATION_TYPE":"U","MEAN_MOTION":14.79929312,"ECCENTRICITY":0.00006117,"INCLINATION":51.9015,"RA_OF_ASC_NODE":332.9302,"ARG_OF_PERICENTER":110.9566,"MEAN_ANOMALY":249.1462,"EPHEMERIS_TYPE":0,"NORAD_CAT_ID":65150,"ELEMENT_SET_NO":999,"REV_AT_EPOCH":5109,"BSTAR":0.00031568029,"MEAN_MOTION_DOT":0.00002186,"MEAN_MOTION_DDOT":0}]}
