KUIPER-00096            
1 65135U 25171D   26191.37913924  .00002203  00000+0  31781-3 0  9992
2 65135  51.9002 335.5399 0000441 112.4261 247.6748 14.79939482 51068
KUIPER-00097            
1 65136U 25171E   26191.44399783  .00002202  00000+0  31768-3 0  9996
2 65136  51.9022 337.9084 0000667 110.9087 249.1947 14.79934931 51025
KUIPER-00098            
1 65137U 25171F   26191.44128327  .00002220  00000+0  32014-3 0  9996
2 65137  51.9007 340.2860 0000515 100.3233 259.7788 14.79937074 50341
KUIPER-00099            
1 65138U 25171G   26191.41830393  .00002295  00000+0  32985-3 0  9996
2 65138  51.9024 330.3918 0000594 109.1185 250.9842 14.79938187 51133
KUIPER-00100            
1 65139U 25171H   26191.79240587 -.00000147  00000+0  97355-5 0  9997
2 65139  51.9023 326.2086 0000542  96.5862 263.5162 14.79926289 51222
KUIPER-00102            
1 65140U 25171J   26191.72218596  .00001759  00000+0  25962-3 0  9999
2 65140  51.8978 329.0064 0000552  76.4562 283.6461 14.79934818 51170
KUIPER-00103            
1 65141U 25171K   26191.46695212  .00002283  00000+0  32831-3 0  9991
2 65141  51.8991 347.6343 0000515 110.8568 249.2450 14.79937876 50891
KUIPER-00104            
1 65142U 25171L   26190.67008513  .00002596  00000+0  36944-3 0  9992
2 65142  51.9019 338.6564 0000516 102.5768 257.5252 14.79927148 50950
KUIPER-00105            
1 65143U 25171M   26190.69577433  .00002411  00000+0  34516-3 0  9996
2 65143  51.9008 346.1450 0000664 109.5008 250.6026 14.79927065 50855
KUIPER-00106            
1 65144U 25171N   26190.67648642  .00002465  00000+0  35217-3 0  9994
2 65144  51.9013 324.9921 0000598 113.4763 246.6262 14.79932977 51156
KUIPER-00107            
1 65145U 25171P   26191.72759273  .00002079  00000+0  30164-3 0  9992
2 65145  51.9012 324.0237 0000592 105.6781 254.4247 14.79930955 51259
KUIPER-00108            
1 65146U 25171Q   26190.46480923  .00002330  00000+0  33457-3 0  9994
2 65146  51.9025 342.1433 0000579 101.1896 258.9131 14.79931416 50899
KUIPER-00109            
1 65147U 25171R   26191.38184986  .00002165  00000+0  31292-3 0  9998
2 65147  51.9009 333.0300 0000411  91.4313 268.6696 14.79925995 51096
KUIPER-00110            
1 65148U 25171S   26190.72683753  .00002365  00000+0  33918-3 0  9991
2 65148  51.9013 348.4873 0000648 110.4555 249.6477 14.79933339 50815
KUIPER-00111            
1 65149U 25171T   26190.75519420  .00002375  00000+0  34045-3 0  9997
2 65149  51.8982 353.2404 0000682 107.9545 252.1492 14.79927065 50750
KUIPER-00112            
1 65150U 25171U   26191.41562216  .00002186  00000+0  31568-3 0  9991
2 65150  51.9015 332.9302 0000611 110.9566 249.1462 14.79929312 51098
